OBJECT_NAME,OBJECT_ID,EPOCH,MEAN_MOTION,ECCENTRICITY,INCLINATION,RA_OF_ASC_NODE,ARG_OF_PERICENTER,MEAN_ANOMALY,EPHEMERIS_TYPE,CLASSIFICATION_TYPE,NORAD_CAT_ID,ELEMENT_SET_NO,REV_AT_EPOCH,BSTAR,MEAN_MOTION_DOT,MEAN_MOTION_DDOT
SAUDISAT 5B,2018-102C,2026-06-18T14:58:42.320352,15.28316312,.00117667,97.3172,234.2498,126.8949,233.3371,0,U,43833,999,41601,.15124274E-3,.4105E-4,0
GSAT-7A,2018-105A,2026-06-18T13:13:14.304000,1.00271379,.00019849,0.0216,85.4148,338.7329,103.7026,0,U,43864,999,2746,0,.2E-6,0
COSMOS 2533,2018-107A,2026-06-17T16:43:22.763136,1.00270501,.00009457,0.0491,89.9947,42.6956,94.0812,0,U,43867,999,2745,0,-.43E-6,0
HONGYUN 1,2018-108A,2026-06-18T13:56:37.293216,13.51409665,.0013898,99.7497,191.3477,61.8707,298.3831,0,U,43871,999,36927,.18080657E-3,.74E-6,0
NAVSTAR 77 (USA 289),2018-109A,2026-06-18T04:13:10.164576,2.00561580,.00381742,55.6828,92.1474,197.9652,279.6252,0,U,43873,999,5509,0,-.14E-6,0
TJS-3,2018-110A,2026-06-17T19:13:12.561312,1.00270373,.0002166,2.5471,80.4839,82.2220,179.8966,0,U,43874,999,2742,0,-.223E-5,0
KANOPUS-V 5,2018-111A,2026-06-18T15:20:16.645920,15.22987391,.00015874,97.3580,75.1203,84.8578,275.2840,0,U,43876,999,41500,.86653749E-4,.1967E-4,0
KANOPUS-V 6,2018-111B,2026-06-18T15:15:29.619936,15.41287518,.00016689,97.3708,86.6905,76.1643,283.9789,0,U,43877,999,41574,.12401152E-3,.5075E-4,0
ISAT,2018-111D,2026-06-18T13:38:42.659520,15.65507893,.0001232,97.5881,104.8960,153.6931,206.4391,0,U,43879,999,41138,.77394761E-3,.77903E-3,0
UWE-4,2018-111E,2026-06-18T06:00:53.776224,15.46181512,.00053009,97.5854,97.6902,337.5186,22.5830,0,U,43880,999,41094,.50222648E-3,.24613E-3,0
D-STAR ONE (SPARROW),2018-111F,2026-06-18T06:36:01.524096,15.74731509,.00043753,97.6116,110.2173,112.2723,247.9005,0,U,43881,999,41154,.90290879E-3,.134065E-2,0
GRUS-1A,2018-111Q,2026-06-18T15:17:12.663168,14.98841369,.00094152,97.4498,36.6841,145.6406,214.5429,0,U,43890,999,40792,.97756629E-4,.1125E-4,0
YUNHAI-2 01A,2018-112A,2026-06-18T15:24:02.308896,14.29023567,.00001029,50.0111,38.0336,50.4393,309.6532,0,U,43909,999,39129,.14680555E-3,.212E-5,0
YUNHAI-2 01B,2018-112B,2026-06-18T14:12:53.863776,14.29013920,.00048045,50.0105,101.8873,232.9186,127.1291,0,U,43910,999,39044,.53262614E-4,-.26E-6,0
YUNHAI-2 01C,2018-112C,2026-06-18T13:11:12.138720,14.28998803,.00008715,50.0128,341.6567,138.0749,222.0233,0,U,43911,999,39198,.69169871E-4,.14E-6,0
YUNHAI-2 01D,2018-112D,2026-06-18T14:14:06.481248,14.29032183,.00152415,50.0108,281.4644,350.1704,9.8911,0,U,43912,999,38778,.46358122E-4,-.43E-6,0
YUNHAI-2 01E,2018-112E,2026-06-18T13:12:20.699712,14.29010912,.00051467,50.0062,160.9562,6.5237,353.5744,0,U,43913,999,38935,.41483045E-4,-.56E-6,0
HONGYAN 1 (CHONGQING),2018-112F,2026-06-18T10:16:54.094368,13.43821179,.00067844,50.0083,232.4480,259.6167,100.3947,0,U,43914,999,36670,.11951695E-3,-.6E-6,0
YUNHAI-2 01F,2018-112G,2026-06-18T15:21:20.539584,14.29030170,.00070237,50.0101,221.4850,330.1782,29.8733,0,U,43915,999,38851,.90108344E-4,.68E-6,0
ZHONGXING-2D,2019-001A,2026-06-18T15:03:27.586368,1.00270639,.00013786,0.0331,238.7578,96.7975,287.1889,0,U,43920,999,5409,0,-.343E-5,0
IRIDIUM 180,2019-002A,2026-06-18T14:25:34.894848,14.34217568,.00022567,86.3971,353.0062,89.2124,270.9330,0,U,43922,999,38919,.47348278E-4,.152E-5,0
IRIDIUM 176,2019-002B,2026-06-18T12:26:18.928032,14.72268563,.00023092,86.6091,352.9842,93.0519,267.0962,0,U,43923,999,39944,.90778715E-4,.597E-5,0
IRIDIUM 168,2019-002C,2026-06-18T12:35:58.597728,14.34219338,.00021925,86.3974,353.1155,89.7901,270.3546,0,U,43924,999,38916,.39520037E-4,.13E-5,0
IRIDIUM 173,2019-002D,2026-06-18T10:37:14.939328,14.34217141,.00021808,86.3968,353.0388,87.2268,272.9177,0,U,43925,999,38913,.4696876E-4,.151E-5,0
IRIDIUM 169,2019-002E,2026-06-18T07:05:38.096448,14.38609452,.0001813,86.4223,24.7299,73.4393,286.7004,0,U,43926,999,39038,.64853157E-4,.218E-5,0
IRIDIUM 172,2019-002F,2026-06-18T12:08:34.674432,14.34219038,.00022569,86.3970,353.0202,88.5995,271.5459,0,U,43927,999,38915,.49823859E-4,.159E-5,0
IRIDIUM 175,2019-002G,2026-06-18T14:13:40.198368,14.43613386,.00026851,86.4514,289.9332,174.8560,185.2669,0,U,43928,999,39918,.72832109E-4,.267E-5,0
IRIDIUM 171,2019-002H,2026-06-18T11:41:10.904928,14.34217347,.00019424,86.3975,353.3344,91.3210,268.8209,0,U,43929,999,38914,-.20091186E-4,-.36E-6,0
IRIDIUM 170,2019-002J,2026-06-18T01:10:06.463488,14.72268543,.00023566,86.6091,353.1830,89.3305,270.8182,0,U,43930,999,39938,.92772602E-4,.61E-5,0
IRIDIUM 167,2019-002K,2026-06-18T11:32:02.872320,14.34217549,.00017786,86.3966,353.0532,92.7104,267.4296,0,U,43931,999,38914,-.2608776E-5,.12E-6,0
JILIN-1 09,2019-005B,2026-06-18T13:29:17.772864,15.20524205,.00037805,97.4742,264.5126,91.9111,268.2557,0,U,43943,999,40935,.16729177E-3,.3589E-4,0
JILIN-1 10,2019-005E,2026-06-18T13:40:00.035904,15.25734441,.00065522,97.4789,268.3735,272.9280,87.1208,0,U,43946,999,40952,.18159583E-3,.456E-4,0
HELLAS-SAT 4 & SGS-1,2019-007A,2026-06-18T13:06:29.951136,1.00269077,.00047398,0.0765,127.5575,13.2047,1.6726,0,U,44034,999,2738,0,.146E-5,0
GSAT-31,2019-007B,2026-06-18T13:08:59.710848,1.00275067,.00016698,0.0616,257.6895,107.6141,146.5911,0,U,44035,999,2698,0,.119E-5,0
EGYPTSAT-A (MISRSAT-A),2019-008A,2026-06-18T15:19:17.213952,14.72311005,.00013194,98.0190,234.3795,96.6814,263.4543,0,U,44047,999,39345,.13889147E-3,.829E-5,0
NUSANTARA SATU,2019-009A,2026-06-18T13:36:56.065248,1.00270129,.00043066,0.0405,133.1754,343.9709,139.8997,0,U,44048,999,2678,0,-.241E-5,0
ONEWEB-0012,2019-010A,2026-06-18T09:26:06.407808,13.16595753,.00018583,87.9102,228.5459,86.6823,273.4520,0,U,44057,999,35172,-.30673574E-3,-.104E-5,0
ONEWEB-0010,2019-010B,2026-06-18T04:34:16.633920,13.16595072,.00018858,87.9098,228.5819,106.7005,253.4333,0,U,44058,999,35174,-.8919069E-5,.9E-7,0
ONEWEB-0008,2019-010C,2026-06-18T14:17:55.633920,13.16595503,.00023327,87.9093,228.4970,97.7095,262.4301,0,U,44059,999,35191,.5981046E-4,.36E-6,0
ONEWEB-0007,2019-010D,2026-06-18T11:31:03.853344,13.15549491,.00016725,87.9002,258.9636,99.3612,260.7708,0,U,44060,999,35154,.57321667E-3,.229E-5,0
ONEWEB-0006,2019-010E,2026-06-18T11:36:45.004608,13.15549870,.00018655,87.9015,258.9271,103.5256,256.6082,0,U,44061,999,35159,.32094149E-3,.134E-5,0
ONEWEB-0011,2019-010F,2026-06-18T12:40:38.548416,13.15547488,.00021102,87.9014,258.9280,105.0875,255.0489,0,U,44062,999,35159,.14441457E-3,.67E-6,0
S5,2019-009D,2026-06-18T10:26:27.066336,0.99339656,.00029706,6.5649,70.8227,122.3250,68.3487,0,U,44065,999,2645,0,-.6E-7,0
ZHONGXING-6C,2019-012A,2026-06-18T15:03:30.244896,1.00273021,.00140346,0.0781,72.2471,337.5725,213.3187,0,U,44067,999,2675,0,-.342E-5,0
WGS 10 (USA 291),2019-014A,2026-06-18T11:29:52.462752,1.00270668,.00005363,0.0166,13.4524,330.4658,155.5814,0,U,44071,999,2663,0,.41E-6,0
PRISMA,2019-015A,2026-06-18T14:59:25.553184,14.83649599,.00014386,97.8645,244.3758,79.7818,280.3558,0,U,44072,999,39226,.86781337E-4,.664E-5,0
TIANLIAN 2-01,2019-017A,2026-06-18T13:17:17.536416,1.00271015,.00007566,0.5444,83.1109,32.1320,67.8793,0,U,44076,999,2666,0,-.113E-5,0
EMISAT,2019-018A,2026-06-18T14:23:41.728992,14.43688847,.00177632,98.4642,228.3929,210.2361,149.7806,0,U,44078,999,38026,.15293618E-3,.476E-5,0
O3B FM20,2019-020A,2026-06-18T09:52:20.103456,5.00115552,.00024313,0.0522,358.2849,80.6442,281.0960,0,U,44112,999,13163,0,-.23E-6,0
O3B FM19,2019-020B,2026-06-18T10:31:14.885472,5.00115947,.00039093,0.0770,340.2662,89.3633,290.4103,0,U,44113,999,13150,0,-.23E-6,0
O3B FM17,2019-020C,2026-06-18T07:38:50.353440,5.00115523,.00025748,0.0337,7.6124,78.5145,273.9003,0,U,44114,999,13157,0,-.23E-6,0
O3B FM18,2019-020D,2026-06-18T06:21:33.465024,5.00115237,.00027595,0.0526,358.2180,89.6853,272.1261,0,U,44115,999,13170,0,-.23E-6,0
ARABSAT-6A,2019-021A,2026-06-18T13:04:00.189696,1.00274523,.00016184,0.0499,10.8449,340.2420,142.1534,0,U,44186,999,2617,0,.147E-5,0
BEIDOU-3 IGSO-1,2019-023A,2026-06-18T14:37:15.269664,1.00291017,.00255444,58.6970,37.6341,225.7171,340.8879,0,U,44204,999,722,0,-.224E-5,0
TIANHUI 2-01A,2019-024A,2026-06-17T14:54:47.140416,15.16751336,.00015832,97.4799,172.5519,98.1553,261.9860,0,U,44207,999,10220,.73809284E-4,.1381E-4,0
TIANHUI 2-01B,2019-024C,2026-06-17T14:54:47.239776,15.16751280,.00020718,97.4799,172.5490,88.0377,272.1093,0,U,44209,999,39477,.73831911E-4,.1382E-4,0
BEIDOU-2 G8,2019-027A,2026-06-18T15:12:02.845728,1.00270302,.00101493,1.6623,74.4988,281.9316,282.9878,0,U,44231,999,2609,0,-.254E-5,0
RISAT-2B,2019-028A,2026-06-17T13:13:10.600896,15.01686477,.0004352,36.9980,351.9359,26.4168,333.6796,0,U,44233,999,38788,.20914E-3,.269E-4,0
COSMOS 2534 [GLONASS-M],2019-030A,2026-06-16T03:36:36.198144,2.13102184,.00133893,64.3685,192.6516,275.0852,148.6554,0,U,44299,999,5490,0,.77E-6,0
YAMAL 601,2019-031A,2026-06-18T13:09:22.174848,1.00271870,.00024059,0.0263,73.0889,16.7504,63.2879,0,U,44307,999,2594,0,.114E-5,0
BUFENG 1A,2019-032A,2026-06-18T14:00:00.444672,15.28318438,.00103568,44.9738,49.1586,259.3401,100.6315,0,U,44310,999,38740,.3130869E-3,.8521E-4,0
BUFENG 1B,2019-032B,2026-06-18T14:11:53.917728,15.27779758,.00260897,44.9746,2.3747,332.8565,27.0952,0,U,44311,999,38796,.30985579E-3,.8354E-4,0
JILIN-1 GAOFEN 3A,2019-032C,2026-06-18T14:01:19.198272,15.32654245,.00063967,44.9753,349.2475,302.5771,57.4495,0,U,44312,999,38805,.29732134E-3,.9263E-4,0
TIANQI-3,2019-032E,2026-06-18T12:49:03.404352,15.38684498,.00087395,45.0015,332.2357,322.1007,37.9265,0,U,44314,999,38828,.3305671E-3,.12599E-3,0
WT 1B,2019-032G,2026-06-18T13:45:18.482976,15.27204645,.00099721,44.9722,53.3738,255.8571,104.1204,0,U,44316,999,38729,.30605665E-3,.8037E-4,0
RCM-1,2019-033A,2026-06-18T13:01:04.969632,14.92588296,.00014651,97.7600,176.9684,89.1884,270.9503,0,U,44322,999,38228,.1075045E-5,-.45E-6,0
RCM-3,2019-033B,2026-06-18T13:33:38.501280,14.92586446,.0001532,97.7607,177.0849,88.9616,271.1779,0,U,44323,999,38230,.20876E-4,.159E-5,0
